{
  "norad_id": 57975,
  "name": "STARLINK-30503",
  "history": [
    {
      "epoch": "2026-03-28T20:33:42.646176Z",
      "apogee_km": 483.37678217668963,
      "perigee_km": 482.9404037769764,
      "latitude_deg": -4.40362535002958e-05,
      "longitude_deg": 93.3710797125497,
      "height_km": 483.1436631935289,
      "semi_major_axis_km": 6861.295592976833,
      "eccentricity": 3.18e-05,
      "inclination_deg": 42.9999,
      "raan_deg": 228.07,
      "arg_perigee_deg": 164.0442,
      "mean_anomaly_deg": 196.0419,
      "mean_motion_rev_day": 15.27543433
    }
  ]
}